[{"OBJECT_NAME":"STARLINK-2565","OBJECT_ID":"2021-036E","EPOCH":"2026-03-09T07:12:35.222688","MEAN_MOTION":15.06407119,"ECCENTRICITY":0.0001513,"INCLINATION":53.0543,"RA_OF_ASC_NODE":98.3658,"ARG_OF_PERICENTER":91.9906,"MEAN_ANOMALY":268.1256,"EPHEMERIS_TYPE":0,"CLASSIFICATION_TYPE":"U","NORAD_CAT_ID":48280,"ELEMENT_SET_NO":999,"REV_AT_EPOCH":26804,"BSTAR":0.00020570937,"MEAN_MOTION_DOT":2.784e-5,"MEAN_MOTION_DDOT":0},{"OBJECT_NAME":"JILIN-1 GAOFEN 2D","OBJECT_ID":"2021-086A","EPOCH":"2026-03-09T21:43:54.183072","MEAN_MOTION":15.09714905,"ECCENTRICITY":0.00351294,"INCLINATION":97.632,"RA_OF_ASC_NODE":191.8747,"ARG_OF_PERICENTER":123.7982,"MEAN_ANOMALY":236.66,"EPHEMERIS_TYPE":0,"CLASSIFICATION_TYPE":"U","NORAD_CAT_ID":49256,"ELEMENT_SET_NO":999,"REV_AT_EPOCH":24573,"BSTAR":0.00040994132,"MEAN_MOTION_DOT":6.64e-5,"MEAN_MOTION_DDOT":0}]
